[{"OBJECT_NAME":"STARLINK-36060","OBJECT_ID":"2025-298R","EPOCH":"2026-03-09T22:00:01.999584","MEAN_MOTION":14.98356266,"ECCENTRICITY":0.0002785,"INCLINATION":70.0013,"RA_OF_ASC_NODE":13.8822,"ARG_OF_PERICENTER":268.1608,"MEAN_ANOMALY":9.2301,"EPHEMERIS_TYPE":0,"CLASSIFICATION_TYPE":"U","NORAD_CAT_ID":67090,"ELEMENT_SET_NO":999,"REV_AT_EPOCH":590,"BSTAR":-0.0022074468,"MEAN_MOTION_DOT":-0.00026351,"MEAN_MOTION_DDOT":0},{"OBJECT_NAME":"BREEZE-KM R\/B","OBJECT_ID":"2018-039B","EPOCH":"2026-03-09T22:26:32.085312","MEAN_MOTION":15.28213901,"ECCENTRICITY":0.01527689,"INCLINATION":98.674,"RA_OF_ASC_NODE":182.4943,"ARG_OF_PERICENTER":174.8677,"MEAN_ANOMALY":185.417,"EPHEMERIS_TYPE":0,"CLASSIFICATION_TYPE":"U","NORAD_CAT_ID":43438,"ELEMENT_SET_NO":999,"REV_AT_EPOCH":43229,"BSTAR":0.00046949249,"MEAN_MOTION_DOT":0.00018266,"MEAN_MOTION_DDOT":0}]
